CZ-4B R/B               
1 28415U 04035C   25288.35935116  .00009828  00000+0  37723-3 0  9991
2 28415  97.3701 319.5113 0035955 121.8918 238.5827 15.26054057157721
CZ-2C R/B               
1 28480U 04046B   25288.40721298  .00000254  00000+0  10995-3 0  9991
2 28480  98.1929 207.4279 0138593 224.1731 134.8318 14.26903227 87786
ARIANE 5 R/B            
1 28499U 04049H   25288.43276592  .00001650  00000+0  18884-3 0  9995
2 28499  98.2498  86.6451 0086044 101.6602 259.4283 14.84832154124237
CZ-2D R/B               
1 28738U 05024B   25288.60116560  .00031385  00000+0  57388-3 0  9992
2 28738  97.3705 294.6721 0005668 169.9526 190.1840 15.49300758117245
ALOS (DAICHI)           
1 28931U 06002A   25288.60746566  .00002367  00000+0  41024-3 0  9997
2 28931  98.0986 240.5478 0002186  67.2304 292.9132 14.69191972 52176
H-2A R/B                
1 28932U 06002B   25288.61651866  .00009607  00000+0  52623-3 0  9998
2 28932  98.2265  58.7113 0056261  15.1998 345.0905 15.13083617 72477
RESURS-DK 1             
1 29228U 06021A   25288.60964962  .00004016  00000+0  24156-3 0  9990
2 29228  69.9324 252.0068 0006401 314.0529  46.0109 15.11673798 65599
CZ-4B R/B               
1 29507U 06046C   25288.53167505  .00006694  00000+0  35610-3 0  9998
2 29507  97.5837 328.8317 0035865  51.8843 308.5613 15.15029405 38056
CZ-2C R/B               
1 31114U 07010B   25288.59493498  .00000170  00000+0  97187-4 0  9997
2 31114  98.3932  44.1863 0058918 357.2682   2.8165 14.20176484959121
COSMO-SKYMED 1          
1 31598U 07023A   25288.64285302  .00003824  00000+0  35365-3 0  9994
2 31598  97.8873 113.6802 0001034  85.2424 274.8914 14.95163237993214
COSMOS 2428             
1 31792U 07029A   25288.61335285 -.00000233  00000+0 -99555-4 0  9994
2 31792  70.9392 147.9093 0002032 160.1078 200.0123 14.12898256943603
SL-16 R/B               
1 31793U 07029B   25288.63566160  .00000054  00000+0  52740-4 0  9999
2 31793  70.9733 117.2927 0002645 266.2523 205.0329 14.14804237944851
KORONAS-FOTON           
1 33504U 09003A   25288.67400720  .00016521  00000+0  42266-3 0  9995
2 33504  82.4305  66.1708 0011022 321.8001  38.2462 15.39233213923403
CZ-2C R/B               
1 37731U 11030B   25288.63544485  .00002041  00000+0  26611-3 0  9995
2 37731  97.8307 244.0745 0054790 101.9769  70.2251 14.80595266768623
H-2A R/B                
1 38341U 12025E   25288.84577999  .00004365  00000+0  40869-3 0  9999
2 38341  98.4491 239.6733 0047227  66.8602 293.7582 14.93816998726581
SHIJIAN-16 (SJ-16)      
1 39358U 13057A   25288.86226378  .00001916  00000+0  19291-3 0  9992
2 39358  74.9694  99.1374 0016025 105.2067 255.0894 14.91686980649900
SL-4 R/B                
1 39679U 14021B   25288.82468948  .00016047  00000+0  40409-3 0  9993
2 39679  51.6095 321.5908 0106334 297.1156  61.9012 15.34407137633992
ALOS-2                  
1 39766U 14029A   25288.51111723  .00004139  00000+0  56096-3 0  9998
2 39766  97.9224  24.1862 0001572 104.5382 255.6004 14.79458929615403
YAOGAN-29               
1 41038U 15069A   25288.85475598  .00000684  00000+0  91386-4 0  9991
2 41038  98.0287 311.8207 0002895  95.4871 264.6672 14.82786367534414
ASTRO-H (HITOMI)        
1 41337U 16012A   25288.48437458  .00004687  00000+0  28470-3 0  9994
2 41337  30.9994 212.7745 0010215 312.0570  47.9198 15.08817541530274
HXMT (HUIYAN)           
1 42758U 17034A   25288.86858089  .00006930  00000+0  36901-3 0  9997
2 42758  43.0130 100.5417 0032383  38.4380 321.8766 15.15287605460555
CZ-2C R/B               
1 43521U 18054D   25288.47618444  .00070395  00000+0  73629-3 0  9999
2 43521  35.1354 212.4049 0029994 303.1545  56.6308 15.62675796405904
SAOCOM 1A               
1 43641U 18076A   25288.81539584  .00000729  00000+0  98171-4 0  9995
2 43641  97.8880 114.0720 0001463  87.7042 272.4338 14.82148275379906
H-2A R/B                
1 43682U 18084L   25288.77712587  .00021923  00000+0  64795-3 0  9993
2 43682  98.8829 110.9756 0029479 163.2211 197.0009 15.34541079383509
SAOCOM 1B               
1 46265U 20059A   25288.84663052  .00000732  00000+0  98441-4 0  9999
2 46265  97.8874 113.2070 0001387  92.4231 267.7140 14.82160655277294
CSS (TIANHE)            
1 48274U 21035A   25288.70459370  .00041669  00000+0  46770-3 0  9998
2 48274  41.4665   9.3553 0003274 248.5442 111.5048 15.61854520254966
COSMOS 2550             
1 48865U 21056A   25286.08300874 -.00000196  00000+0 -12132-6 0  9990
2 48865  67.1394 127.4689 0008372 269.3496  90.6699 15.33848390240828
CZ-2C R/B               
1 52794U 22058K   25288.52488278  .00025456  00000+0  51852-3 0  9998
2 52794  50.1924 339.5364 0052438 315.4474  44.2282 15.44551182187625
GSLV R/B                
1 54149U 22138AN  25288.32267164  .00004350  00000+0  38785-3 0  9990
2 54149  87.3842 215.0175 0020303 326.8627  33.1331 14.95619160162195
XRISM                   
1 57800U 23137A   25287.99858292  .00006792  00000+0  40824-3 0  9996
2 57800  31.0015 144.5401 0008435  12.5923 347.4925 15.09435404115740
ACS3                    
1 59588U 24077B   25288.61617417  .00006056  00000+0  56357-2 0  9997
2 59588  97.3644 257.0342 0018636 353.7916   6.3010 13.82197211 74108
